{
  "type": "FeatureCollection",
  "features": [
    {
      "type": "Feature",
      "geometry": {
        "type": "Point",
        "coordinates": [
          -1.255739738,
          51.75154688
        ]
      },
      "properties": {
        "name": "Bear Inn",
        "osm_type": "wikidata",
        "osm_id": 4876452,
        "address": "6 Alfred Street, Oxford, Oxfordshire, OX1 4EH, Oxford",
        "house_name": "",
        "house_number": "",
        "street": "6 Alfred Street, Oxford, Oxfordshire, OX1 4EH",
        "suburb": "",
        "city": "Oxford",
        "postcode": "",
        "country": "",
        "operator": "",
        "brewery": "",
        "website": "",
        "phone": "",
        "opening_hours": "",
        "cuisine": "",
        "food": "",
        "drink": "",
        "outdoor_seating": "",
        "indoor_seating": "",
        "internet_access": "",
        "real_ale": "",
        "real_cider": "",
        "live_music": "",
        "dog": "",
        "wheelchair": "",
        "toilets": "",
        "smoking": "",
        "wikidata": "Q4876452",
        "wikipedia": "en:The Bear, Oxford",
        "fetched_at_utc": "2026-10-07T09:42:22+00:00",
        "source_endpoint": "wikidata",
        "tags": {
          "name": "Bear Inn",
          "wikidata": "Q4876452",
          "amenity": "pub",
          "historic": "building",
          "heritage": "2",
          "listed_status": "grade ii",
          "wikipedia": "en:The Bear, Oxford",
          "addr:street": "6 Alfred Street, Oxford, Oxfordshire, OX1 4EH",
          "addr:city": "Oxford"
        }
      }
    },
    {
      "type": "Feature",
      "geometry": {
        "type": "Point",
        "coordinates": [
          -1.239176,
          51.748554
        ]
      },
      "properties": {
        "name": "Big Society",
        "osm_type": "wikidata",
        "osm_id": 26650696,
        "address": "Oxford",
        "house_name": "",
        "house_number": "",
        "street": "",
        "suburb": "",
        "city": "Oxford",
        "postcode": "",
        "country": "",
        "operator": "",
        "brewery": "",
        "website": "",
        "phone": "",
        "opening_hours": "",
        "cuisine": "",
        "food": "",
        "drink": "",
        "outdoor_seating": "",
        "indoor_seating": "",
        "internet_access": "",
        "real_ale": "",
        "real_cider": "",
        "live_music": "",
        "dog": "",
        "wheelchair": "",
        "toilets": "",
        "smoking": "",
        "wikidata": "Q26650696",
        "wikipedia": "",
        "fetched_at_utc": "2026-10-07T09:42:22+00:00",
        "source_endpoint": "wikidata",
        "tags": {
          "name": "Big Society",
          "wikidata": "Q26650696",
          "amenity": "pub",
          "heritage": "2",
          "historic": "building",
          "listed_status": "grade ii",
          "addr:city": "Oxford"
        }
      }
    },
    {
      "type": "Feature",
      "geometry": {
        "type": "Point",
        "coordinates": [
          -1.261585,
          51.758795
        ]
      },
      "properties": {
        "name": "Duke of Cambridge",
        "osm_type": "wikidata",
        "osm_id": 135193304,
        "address": "Oxford",
        "house_name": "",
        "house_number": "",
        "street": "",
        "suburb": "",
        "city": "Oxford",
        "postcode": "",
        "country": "",
        "operator": "",
        "brewery": "",
        "website": "",
        "phone": "",
        "opening_hours": "",
        "cuisine": "",
        "food": "",
        "drink": "",
        "outdoor_seating": "",
        "indoor_seating": "",
        "internet_access": "",
        "real_ale": "",
        "real_cider": "",
        "live_music": "",
        "dog": "",
        "wheelchair": "",
        "toilets": "",
        "smoking": "",
        "wikidata": "Q135193304",
        "wikipedia": "",
        "fetched_at_utc": "2026-10-07T09:42:22+00:00",
        "source_endpoint": "wikidata",
        "tags": {
          "name": "Duke of Cambridge",
          "wikidata": "Q135193304",
          "amenity": "pub",
          "addr:city": "Oxford"
        }
      }
    },
    {
      "type": "Feature",
      "geometry": {
        "type": "Point",
        "coordinates": [
          -1.2494,
          51.7521
        ]
      },
      "properties": {
        "name": "Eastgate Hotel",
        "osm_type": "wikidata",
        "osm_id": 5330667,
        "address": "Oxford",
        "house_name": "",
        "house_number": "",
        "street": "",
        "suburb": "",
        "city": "Oxford",
        "postcode": "",
        "country": "",
        "operator": "",
        "brewery": "",
        "website": "",
        "phone": "",
        "opening_hours": "",
        "cuisine": "",
        "food": "",
        "drink": "",
        "outdoor_seating": "",
        "indoor_seating": "",
        "internet_access": "",
        "real_ale": "",
        "real_cider": "",
        "live_music": "",
        "dog": "",
        "wheelchair": "",
        "toilets": "",
        "smoking": "",
        "wikidata": "Q5330667",
        "wikipedia": "en:Eastgate Hotel",
        "fetched_at_utc": "2026-10-07T09:42:22+00:00",
        "source_endpoint": "wikidata",
        "tags": {
          "name": "Eastgate Hotel",
          "wikidata": "Q5330667",
          "amenity": "pub",
          "wikipedia": "en:Eastgate Hotel",
          "start_date": "1900",
          "addr:city": "Oxford"
        }
      }
    },
    {
      "type": "Feature",
      "geometry": {
        "type": "Point",
        "coordinates": [
          -1.26478,
          51.75946
        ]
      },
      "properties": {
        "name": "Freud",
        "osm_type": "wikidata",
        "osm_id": 15221133,
        "address": "119 Walton Street, Jericho, Oxford, OX2 6AH, England, Oxford",
        "house_name": "",
        "house_number": "",
        "street": "119 Walton Street, Jericho, Oxford, OX2 6AH, England",
        "suburb": "",
        "city": "Oxford",
        "postcode": "",
        "country": "",
        "operator": "",
        "brewery": "",
        "website": "",
        "phone": "",
        "opening_hours": "",
        "cuisine": "",
        "food": "",
        "drink": "",
        "outdoor_seating": "",
        "indoor_seating": "",
        "internet_access": "",
        "real_ale": "",
        "real_cider": "",
        "live_music": "",
        "dog": "",
        "wheelchair": "",
        "toilets": "",
        "smoking": "",
        "wikidata": "Q15221133",
        "wikipedia": "en:Freud, Oxford",
        "fetched_at_utc": "2026-10-07T09:42:22+00:00",
        "source_endpoint": "wikidata",
        "tags": {
          "name": "Freud",
          "wikidata": "Q15221133",
          "amenity": "pub",
          "wikipedia": "en:Freud, Oxford",
          "addr:street": "119 Walton Street, Jericho, Oxford, OX2 6AH, England",
          "addr:city": "Oxford"
        }
      }
    },
    {
      "type": "Feature",
      "geometry": {
        "type": "Point",
        "coordinates": [
          -1.2620572,
          51.7645044
        ]
      },
      "properties": {
        "name": "Gardeners Arms",
        "osm_type": "wikidata",
        "osm_id": 138453336,
        "address": "Oxford",
        "house_name": "",
        "house_number": "",
        "street": "",
        "suburb": "",
        "city": "Oxford",
        "postcode": "",
        "country": "",
        "operator": "",
        "brewery": "",
        "website": "",
        "phone": "",
        "opening_hours": "",
        "cuisine": "",
        "food": "",
        "drink": "",
        "outdoor_seating": "",
        "indoor_seating": "",
        "internet_access": "",
        "real_ale": "",
        "real_cider": "",
        "live_music": "",
        "dog": "",
        "wheelchair": "",
        "toilets": "",
        "smoking": "",
        "wikidata": "Q138453336",
        "wikipedia": "",
        "fetched_at_utc": "2026-10-07T09:42:22+00:00",
        "source_endpoint": "wikidata",
        "tags": {
          "name": "Gardeners Arms",
          "wikidata": "Q138453336",
          "amenity": "pub",
          "addr:city": "Oxford"
        }
      }
    },
    {
      "type": "Feature",
      "geometry": {
        "type": "Point",
        "coordinates": [
          -1.237383,
          51.747432
        ]
      },
      "properties": {
        "name": "James Street Tavern",
        "osm_type": "wikidata",
        "osm_id": 138453247,
        "address": "Oxford",
        "house_name": "",
        "house_number": "",
        "street": "",
        "suburb": "",
        "city": "Oxford",
        "postcode": "",
        "country": "",
        "operator": "",
        "brewery": "",
        "website": "",
        "phone": "",
        "opening_hours": "",
        "cuisine": "",
        "food": "",
        "drink": "",
        "outdoor_seating": "",
        "indoor_seating": "",
        "internet_access": "",
        "real_ale": "",
        "real_cider": "",
        "live_music": "",
        "dog": "",
        "wheelchair": "",
        "toilets": "",
        "smoking": "",
        "wikidata": "Q138453247",
        "wikipedia": "",
        "fetched_at_utc": "2026-10-07T09:42:22+00:00",
        "source_endpoint": "wikidata",
        "tags": {
          "name": "James Street Tavern",
          "wikidata": "Q138453247",
          "amenity": "pub",
          "addr:city": "Oxford"
        }
      }
    },
    {
      "type": "Feature",
      "geometry": {
        "type": "Point",
        "coordinates": [
          -1.2664,
          51.7598
        ]
      },
      "properties": {
        "name": "Jericho Tavern",
        "osm_type": "wikidata",
        "osm_id": 6182178,
        "address": "Oxford",
        "house_name": "",
        "house_number": "",
        "street": "",
        "suburb": "",
        "city": "Oxford",
        "postcode": "",
        "country": "",
        "operator": "",
        "brewery": "",
        "website": "",
        "phone": "",
        "opening_hours": "",
        "cuisine": "",
        "food": "",
        "drink": "",
        "outdoor_seating": "",
        "indoor_seating": "",
        "internet_access": "",
        "real_ale": "",
        "real_cider": "",
        "live_music": "",
        "dog": "",
        "wheelchair": "",
        "toilets": "",
        "smoking": "",
        "wikidata": "Q6182178",
        "wikipedia": "en:Jericho Tavern",
        "fetched_at_utc": "2026-10-07T09:42:22+00:00",
        "source_endpoint": "wikidata",
        "tags": {
          "name": "Jericho Tavern",
          "wikidata": "Q6182178",
          "amenity": "pub",
          "wikipedia": "en:Jericho Tavern",
          "addr:city": "Oxford"
        }
      }
    },
    {
      "type": "Feature",
      "geometry": {
        "type": "Point",
        "coordinates": [
          -1.266211,
          51.760019
        ]
      },
      "properties": {
        "name": "Jude the Obscure",
        "osm_type": "wikidata",
        "osm_id": 135188719,
        "address": "Oxford",
        "house_name": "",
        "house_number": "",
        "street": "",
        "suburb": "",
        "city": "Oxford",
        "postcode": "",
        "country": "",
        "operator": "",
        "brewery": "",
        "website": "",
        "phone": "",
        "opening_hours": "",
        "cuisine": "",
        "food": "",
        "drink": "",
        "outdoor_seating": "",
        "indoor_seating": "",
        "internet_access": "",
        "real_ale": "",
        "real_cider": "",
        "live_music": "",
        "dog": "",
        "wheelchair": "",
        "toilets": "",
        "smoking": "",
        "wikidata": "Q135188719",
        "wikipedia": "",
        "fetched_at_utc": "2026-10-07T09:42:22+00:00",
        "source_endpoint": "wikidata",
        "tags": {
          "name": "Jude the Obscure",
          "wikidata": "Q135188719",
          "amenity": "pub",
          "addr:city": "Oxford"
        }
      }
    },
    {
      "type": "Feature",
      "geometry": {
        "type": "Point",
        "coordinates": [
          -1.254286,
          51.755082
        ]
      },
      "properties": {
        "name": "King's Arms",
        "osm_type": "wikidata",
        "osm_id": 6410842,
        "address": "Oxford",
        "house_name": "",
        "house_number": "",
        "street": "",
        "suburb": "",
        "city": "Oxford",
        "postcode": "",
        "country": "",
        "operator": "",
        "brewery": "",
        "website": "",
        "phone": "",
        "opening_hours": "",
        "cuisine": "",
        "food": "",
        "drink": "",
        "outdoor_seating": "",
        "indoor_seating": "",
        "internet_access": "",
        "real_ale": "",
        "real_cider": "",
        "live_music": "",
        "dog": "",
        "wheelchair": "",
        "toilets": "",
        "smoking": "",
        "wikidata": "Q6410842",
        "wikipedia": "en:King's Arms, Oxford",
        "fetched_at_utc": "2026-10-07T09:42:22+00:00",
        "source_endpoint": "wikidata",
        "tags": {
          "name": "King's Arms",
          "wikidata": "Q6410842",
          "amenity": "pub",
          "heritage": "2",
          "historic": "building",
          "listed_status": "grade ii",
          "wikipedia": "en:King's Arms, Oxford",
          "addr:city": "Oxford"
        }
      }
    },
    {
      "type": "Feature",
      "geometry": {
        "type": "Point",
        "coordinates": [
          -1.259311,
          51.757395
        ]
      },
      "properties": {
        "name": "Lamb & Flag",
        "osm_type": "wikidata",
        "osm_id": 82455,
        "address": "Oxford",
        "house_name": "",
        "house_number": "",
        "street": "",
        "suburb": "",
        "city": "Oxford",
        "postcode": "",
        "country": "",
        "operator": "",
        "brewery": "",
        "website": "",
        "phone": "",
        "opening_hours": "",
        "cuisine": "",
        "food": "",
        "drink": "",
        "outdoor_seating": "",
        "indoor_seating": "",
        "internet_access": "",
        "real_ale": "",
        "real_cider": "",
        "live_music": "",
        "dog": "",
        "wheelchair": "",
        "toilets": "",
        "smoking": "",
        "wikidata": "Q82455",
        "wikipedia": "en:Lamb & Flag, Oxford",
        "fetched_at_utc": "2026-10-07T09:42:22+00:00",
        "source_endpoint": "wikidata",
        "tags": {
          "name": "Lamb & Flag",
          "wikidata": "Q82455",
          "amenity": "pub",
          "heritage": "2",
          "historic": "building",
          "listed_status": "grade ii",
          "wikipedia": "en:Lamb & Flag, Oxford",
          "addr:city": "Oxford"
        }
      }
    },
    {
      "type": "Feature",
      "geometry": {
        "type": "Point",
        "coordinates": [
          -1.236678,
          51.74128
        ]
      },
      "properties": {
        "name": "Magdalen Arms",
        "osm_type": "wikidata",
        "osm_id": 135193213,
        "address": "Oxford",
        "house_name": "",
        "house_number": "",
        "street": "",
        "suburb": "",
        "city": "Oxford",
        "postcode": "",
        "country": "",
        "operator": "",
        "brewery": "",
        "website": "",
        "phone": "",
        "opening_hours": "",
        "cuisine": "",
        "food": "",
        "drink": "",
        "outdoor_seating": "",
        "indoor_seating": "",
        "internet_access": "",
        "real_ale": "",
        "real_cider": "",
        "live_music": "",
        "dog": "",
        "wheelchair": "",
        "toilets": "",
        "smoking": "",
        "wikidata": "Q135193213",
        "wikipedia": "",
        "fetched_at_utc": "2026-10-07T09:42:22+00:00",
        "source_endpoint": "wikidata",
        "tags": {
          "name": "Magdalen Arms",
          "wikidata": "Q135193213",
          "amenity": "pub",
          "addr:city": "Oxford"
        }
      }
    },
    {
      "type": "Feature",
      "geometry": {
        "type": "Point",
        "coordinates": [
          -1.258949,
          51.744952
        ]
      },
      "properties": {
        "name": "Marlborough House",
        "osm_type": "wikidata",
        "osm_id": 138448177,
        "address": "Oxford",
        "house_name": "",
        "house_number": "",
        "street": "",
        "suburb": "",
        "city": "Oxford",
        "postcode": "",
        "country": "",
        "operator": "",
        "brewery": "",
        "website": "",
        "phone": "",
        "opening_hours": "",
        "cuisine": "",
        "food": "",
        "drink": "",
        "outdoor_seating": "",
        "indoor_seating": "",
        "internet_access": "",
        "real_ale": "",
        "real_cider": "",
        "live_music": "",
        "dog": "",
        "wheelchair": "",
        "toilets": "",
        "smoking": "",
        "wikidata": "Q138448177",
        "wikipedia": "",
        "fetched_at_utc": "2026-10-07T09:42:22+00:00",
        "source_endpoint": "wikidata",
        "tags": {
          "name": "Marlborough House",
          "wikidata": "Q138448177",
          "amenity": "pub",
          "addr:city": "Oxford"
        }
      }
    },
    {
      "type": "Feature",
      "geometry": {
        "type": "Point",
        "coordinates": [
          -1.2607996,
          51.7535341
        ]
      },
      "properties": {
        "name": "O'Neill's",
        "osm_type": "wikidata",
        "osm_id": 138452675,
        "address": "Oxford",
        "house_name": "",
        "house_number": "",
        "street": "",
        "suburb": "",
        "city": "Oxford",
        "postcode": "",
        "country": "",
        "operator": "",
        "brewery": "",
        "website": "",
        "phone": "",
        "opening_hours": "",
        "cuisine": "",
        "food": "",
        "drink": "",
        "outdoor_seating": "",
        "indoor_seating": "",
        "internet_access": "",
        "real_ale": "",
        "real_cider": "",
        "live_music": "",
        "dog": "",
        "wheelchair": "",
        "toilets": "",
        "smoking": "",
        "wikidata": "Q138452675",
        "wikipedia": "",
        "fetched_at_utc": "2026-10-07T09:42:22+00:00",
        "source_endpoint": "wikidata",
        "tags": {
          "name": "O'Neill's",
          "wikidata": "Q138452675",
          "amenity": "pub",
          "addr:city": "Oxford"
        }
      }
    },
    {
      "type": "Feature",
      "geometry": {
        "type": "Point",
        "coordinates": [
          -1.26986,
          51.75844
        ]
      },
      "properties": {
        "name": "Old Bookbinders",
        "osm_type": "wikidata",
        "osm_id": 135193495,
        "address": "Oxford",
        "house_name": "",
        "house_number": "",
        "street": "",
        "suburb": "",
        "city": "Oxford",
        "postcode": "",
        "country": "",
        "operator": "",
        "brewery": "",
        "website": "",
        "phone": "",
        "opening_hours": "",
        "cuisine": "",
        "food": "",
        "drink": "",
        "outdoor_seating": "",
        "indoor_seating": "",
        "internet_access": "",
        "real_ale": "",
        "real_cider": "",
        "live_music": "",
        "dog": "",
        "wheelchair": "",
        "toilets": "",
        "smoking": "",
        "wikidata": "Q135193495",
        "wikipedia": "",
        "fetched_at_utc": "2026-10-07T09:42:22+00:00",
        "source_endpoint": "wikidata",
        "tags": {
          "name": "Old Bookbinders",
          "wikidata": "Q135193495",
          "amenity": "pub",
          "addr:city": "Oxford"
        }
      }
    },
    {
      "type": "Feature",
      "geometry": {
        "type": "Point",
        "coordinates": [
          -1.2572754,
          51.7508932
        ]
      },
      "properties": {
        "name": "Old Tom",
        "osm_type": "wikidata",
        "osm_id": 135193267,
        "address": "Oxford",
        "house_name": "",
        "house_number": "",
        "street": "",
        "suburb": "",
        "city": "Oxford",
        "postcode": "",
        "country": "",
        "operator": "",
        "brewery": "",
        "website": "",
        "phone": "",
        "opening_hours": "",
        "cuisine": "",
        "food": "",
        "drink": "",
        "outdoor_seating": "",
        "indoor_seating": "",
        "internet_access": "",
        "real_ale": "",
        "real_cider": "",
        "live_music": "",
        "dog": "",
        "wheelchair": "",
        "toilets": "",
        "smoking": "",
        "wikidata": "Q135193267",
        "wikipedia": "",
        "fetched_at_utc": "2026-10-07T09:42:22+00:00",
        "source_endpoint": "wikidata",
        "tags": {
          "name": "Old Tom",
          "wikidata": "Q135193267",
          "amenity": "pub",
          "addr:city": "Oxford"
        }
      }
    },
    {
      "type": "Feature",
      "geometry": {
        "type": "Point",
        "coordinates": [
          -1.24264824,
          51.75038707
        ]
      },
      "properties": {
        "name": "Oranges and Lemons",
        "osm_type": "wikidata",
        "osm_id": 132558578,
        "address": "Oxford",
        "house_name": "",
        "house_number": "",
        "street": "",
        "suburb": "",
        "city": "Oxford",
        "postcode": "",
        "country": "",
        "operator": "",
        "brewery": "",
        "website": "",
        "phone": "",
        "opening_hours": "",
        "cuisine": "",
        "food": "",
        "drink": "",
        "outdoor_seating": "",
        "indoor_seating": "",
        "internet_access": "",
        "real_ale": "",
        "real_cider": "",
        "live_music": "",
        "dog": "",
        "wheelchair": "",
        "toilets": "",
        "smoking": "",
        "wikidata": "Q132558578",
        "wikipedia": "",
        "fetched_at_utc": "2026-10-07T09:42:22+00:00",
        "source_endpoint": "wikidata",
        "tags": {
          "name": "Oranges and Lemons",
          "wikidata": "Q132558578",
          "amenity": "pub",
          "addr:city": "Oxford"
        }
      }
    },
    {
      "type": "Feature",
      "geometry": {
        "type": "Point",
        "coordinates": [
          -1.239706,
          51.750794
        ]
      },
      "properties": {
        "name": "Oxford Coach & Horses",
        "osm_type": "wikidata",
        "osm_id": 135188741,
        "address": "Oxford",
        "house_name": "",
        "house_number": "",
        "street": "",
        "suburb": "",
        "city": "Oxford",
        "postcode": "",
        "country": "",
        "operator": "",
        "brewery": "",
        "website": "",
        "phone": "",
        "opening_hours": "",
        "cuisine": "",
        "food": "",
        "drink": "",
        "outdoor_seating": "",
        "indoor_seating": "",
        "internet_access": "",
        "real_ale": "",
        "real_cider": "",
        "live_music": "",
        "dog": "",
        "wheelchair": "",
        "toilets": "",
        "smoking": "",
        "wikidata": "Q135188741",
        "wikipedia": "",
        "fetched_at_utc": "2026-10-07T09:42:22+00:00",
        "source_endpoint": "wikidata",
        "tags": {
          "name": "Oxford Coach & Horses",
          "wikidata": "Q135188741",
          "amenity": "pub",
          "addr:city": "Oxford"
        }
      }
    },
    {
      "type": "Feature",
      "geometry": {
        "type": "Point",
        "coordinates": [
          -1.258790122,
          51.75349366
        ]
      },
      "properties": {
        "name": "Plough Inn",
        "osm_type": "wikidata",
        "osm_id": 26299432,
        "address": "38, Cornmarket Street, Oxford, Oxfordshire, OX1, Oxford",
        "house_name": "",
        "house_number": "",
        "street": "38, Cornmarket Street, Oxford, Oxfordshire, OX1",
        "suburb": "",
        "city": "Oxford",
        "postcode": "",
        "country": "",
        "operator": "",
        "brewery": "",
        "website": "",
        "phone": "",
        "opening_hours": "",
        "cuisine": "",
        "food": "",
        "drink": "",
        "outdoor_seating": "",
        "indoor_seating": "",
        "internet_access": "",
        "real_ale": "",
        "real_cider": "",
        "live_music": "",
        "dog": "",
        "wheelchair": "",
        "toilets": "",
        "smoking": "",
        "wikidata": "Q26299432",
        "wikipedia": "",
        "fetched_at_utc": "2026-10-07T09:42:22+00:00",
        "source_endpoint": "wikidata",
        "tags": {
          "name": "Plough Inn",
          "wikidata": "Q26299432",
          "amenity": "pub",
          "heritage": "2",
          "historic": "building",
          "listed_status": "grade ii",
          "addr:street": "38, Cornmarket Street, Oxford, Oxfordshire, OX1",
          "addr:city": "Oxford"
        }
      }
    },
    {
      "type": "Feature",
      "geometry": {
        "type": "Point",
        "coordinates": [
          -1.261677,
          51.760728
        ]
      },
      "properties": {
        "name": "Royal Oak",
        "osm_type": "wikidata",
        "osm_id": 26653403,
        "address": "Oxford",
        "house_name": "",
        "house_number": "",
        "street": "",
        "suburb": "",
        "city": "Oxford",
        "postcode": "",
        "country": "",
        "operator": "",
        "brewery": "",
        "website": "",
        "phone": "",
        "opening_hours": "",
        "cuisine": "",
        "food": "",
        "drink": "",
        "outdoor_seating": "",
        "indoor_seating": "",
        "internet_access": "",
        "real_ale": "",
        "real_cider": "",
        "live_music": "",
        "dog": "",
        "wheelchair": "",
        "toilets": "",
        "smoking": "",
        "wikidata": "Q26653403",
        "wikipedia": "",
        "fetched_at_utc": "2026-10-07T09:42:22+00:00",
        "source_endpoint": "wikidata",
        "tags": {
          "name": "Royal Oak",
          "wikidata": "Q26653403",
          "amenity": "pub",
          "heritage": "2",
          "historic": "building",
          "listed_status": "grade ii",
          "addr:city": "Oxford"
        }
      }
    },
    {
      "type": "Feature",
      "geometry": {
        "type": "Point",
        "coordinates": [
          -1.262214,
          51.7521347
        ]
      },
      "properties": {
        "name": "Slug & Lettuce",
        "osm_type": "wikidata",
        "osm_id": 138452531,
        "address": "Oxford",
        "house_name": "",
        "house_number": "",
        "street": "",
        "suburb": "",
        "city": "Oxford",
        "postcode": "",
        "country": "",
        "operator": "",
        "brewery": "",
        "website": "",
        "phone": "",
        "opening_hours": "",
        "cuisine": "",
        "food": "",
        "drink": "",
        "outdoor_seating": "",
        "indoor_seating": "",
        "internet_access": "",
        "real_ale": "",
        "real_cider": "",
        "live_music": "",
        "dog": "",
        "wheelchair": "",
        "toilets": "",
        "smoking": "",
        "wikidata": "Q138452531",
        "wikipedia": "",
        "fetched_at_utc": "2026-10-07T09:42:22+00:00",
        "source_endpoint": "wikidata",
        "tags": {
          "name": "Slug & Lettuce",
          "wikidata": "Q138452531",
          "amenity": "pub",
          "addr:city": "Oxford"
        }
      }
    },
    {
      "type": "Feature",
      "geometry": {
        "type": "Point",
        "coordinates": [
          -1.2575,
          51.7512
        ]
      },
      "properties": {
        "name": "St Aldates Tavern",
        "osm_type": "wikidata",
        "osm_id": 135189060,
        "address": "Oxford",
        "house_name": "",
        "house_number": "",
        "street": "",
        "suburb": "",
        "city": "Oxford",
        "postcode": "",
        "country": "",
        "operator": "",
        "brewery": "",
        "website": "",
        "phone": "",
        "opening_hours": "",
        "cuisine": "",
        "food": "",
        "drink": "",
        "outdoor_seating": "",
        "indoor_seating": "",
        "internet_access": "",
        "real_ale": "",
        "real_cider": "",
        "live_music": "",
        "dog": "",
        "wheelchair": "",
        "toilets": "",
        "smoking": "",
        "wikidata": "Q135189060",
        "wikipedia": "",
        "fetched_at_utc": "2026-10-07T09:42:22+00:00",
        "source_endpoint": "wikidata",
        "tags": {
          "name": "St Aldates Tavern",
          "wikidata": "Q135189060",
          "amenity": "pub",
          "addr:city": "Oxford"
        }
      }
    },
    {
      "type": "Feature",
      "geometry": {
        "type": "Point",
        "coordinates": [
          -1.26042,
          51.752511
        ]
      },
      "properties": {
        "name": "St Peters College",
        "osm_type": "wikidata",
        "osm_id": 26537877,
        "address": "Oxford",
        "house_name": "",
        "house_number": "",
        "street": "",
        "suburb": "",
        "city": "Oxford",
        "postcode": "",
        "country": "",
        "operator": "",
        "brewery": "",
        "website": "",
        "phone": "",
        "opening_hours": "",
        "cuisine": "",
        "food": "",
        "drink": "",
        "outdoor_seating": "",
        "indoor_seating": "",
        "internet_access": "",
        "real_ale": "",
        "real_cider": "",
        "live_music": "",
        "dog": "",
        "wheelchair": "",
        "toilets": "",
        "smoking": "",
        "wikidata": "Q26537877",
        "wikipedia": "",
        "fetched_at_utc": "2026-10-07T09:42:22+00:00",
        "source_endpoint": "wikidata",
        "tags": {
          "name": "St Peters College",
          "wikidata": "Q26537877",
          "amenity": "pub",
          "heritage": "2",
          "historic": "building",
          "listed_status": "grade ii",
          "addr:city": "Oxford"
        }
      }
    },
    {
      "type": "Feature",
      "geometry": {
        "type": "Point",
        "coordinates": [
          -1.267159,
          51.752166
        ]
      },
      "properties": {
        "name": "The Albion",
        "osm_type": "wikidata",
        "osm_id": 138448143,
        "address": "Oxford",
        "house_name": "",
        "house_number": "",
        "street": "",
        "suburb": "",
        "city": "Oxford",
        "postcode": "",
        "country": "",
        "operator": "",
        "brewery": "",
        "website": "",
        "phone": "",
        "opening_hours": "",
        "cuisine": "",
        "food": "",
        "drink": "",
        "outdoor_seating": "",
        "indoor_seating": "",
        "internet_access": "",
        "real_ale": "",
        "real_cider": "",
        "live_music": "",
        "dog": "",
        "wheelchair": "",
        "toilets": "",
        "smoking": "",
        "wikidata": "Q138448143",
        "wikipedia": "",
        "fetched_at_utc": "2026-10-07T09:42:22+00:00",
        "source_endpoint": "wikidata",
        "tags": {
          "name": "The Albion",
          "wikidata": "Q138448143",
          "amenity": "pub",
          "addr:city": "Oxford"
        }
      }
    },
    {
      "type": "Feature",
      "geometry": {
        "type": "Point",
        "coordinates": [
          -1.269039,
          51.767686
        ]
      },
      "properties": {
        "name": "The Anchor",
        "osm_type": "wikidata",
        "osm_id": 138410978,
        "address": "Oxford",
        "house_name": "",
        "house_number": "",
        "street": "",
        "suburb": "",
        "city": "Oxford",
        "postcode": "",
        "country": "",
        "operator": "",
        "brewery": "",
        "website": "",
        "phone": "",
        "opening_hours": "",
        "cuisine": "",
        "food": "",
        "drink": "",
        "outdoor_seating": "",
        "indoor_seating": "",
        "internet_access": "",
        "real_ale": "",
        "real_cider": "",
        "live_music": "",
        "dog": "",
        "wheelchair": "",
        "toilets": "",
        "smoking": "",
        "wikidata": "Q138410978",
        "wikipedia": "",
        "fetched_at_utc": "2026-10-07T09:42:22+00:00",
        "source_endpoint": "wikidata",
        "tags": {
          "name": "The Anchor",
          "wikidata": "Q138410978",
          "amenity": "pub",
          "addr:city": "Oxford"
        }
      }
    },
    {
      "type": "Feature",
      "geometry": {
        "type": "Point",
        "coordinates": [
          -1.253463,
          51.739155
        ]
      },
      "properties": {
        "name": "The Berkshire",
        "osm_type": "wikidata",
        "osm_id": 138448018,
        "address": "Oxford",
        "house_name": "",
        "house_number": "",
        "street": "",
        "suburb": "",
        "city": "Oxford",
        "postcode": "",
        "country": "",
        "operator": "",
        "brewery": "",
        "website": "",
        "phone": "",
        "opening_hours": "",
        "cuisine": "",
        "food": "",
        "drink": "",
        "outdoor_seating": "",
        "indoor_seating": "",
        "internet_access": "",
        "real_ale": "",
        "real_cider": "",
        "live_music": "",
        "dog": "",
        "wheelchair": "",
        "toilets": "",
        "smoking": "",
        "wikidata": "Q138448018",
        "wikipedia": "",
        "fetched_at_utc": "2026-10-07T09:42:22+00:00",
        "source_endpoint": "wikidata",
        "tags": {
          "name": "The Berkshire",
          "wikidata": "Q138448018",
          "amenity": "pub",
          "addr:city": "Oxford"
        }
      }
    },
    {
      "type": "Feature",
      "geometry": {
        "type": "Point",
        "coordinates": [
          -1.242918416,
          51.74999855
        ]
      },
      "properties": {
        "name": "The Black Horse Inn  The Cottage",
        "osm_type": "wikidata",
        "osm_id": 26299238,
        "address": "Oxford",
        "house_name": "",
        "house_number": "",
        "street": "",
        "suburb": "",
        "city": "Oxford",
        "postcode": "",
        "country": "",
        "operator": "",
        "brewery": "",
        "website": "",
        "phone": "",
        "opening_hours": "",
        "cuisine": "",
        "food": "",
        "drink": "",
        "outdoor_seating": "",
        "indoor_seating": "",
        "internet_access": "",
        "real_ale": "",
        "real_cider": "",
        "live_music": "",
        "dog": "",
        "wheelchair": "",
        "toilets": "",
        "smoking": "",
        "wikidata": "Q26299238",
        "wikipedia": "",
        "fetched_at_utc": "2026-10-07T09:42:22+00:00",
        "source_endpoint": "wikidata",
        "tags": {
          "name": "The Black Horse Inn  The Cottage",
          "wikidata": "Q26299238",
          "amenity": "pub",
          "heritage": "2",
          "historic": "building",
          "listed_status": "grade ii",
          "addr:city": "Oxford"
        }
      }
    },
    {
      "type": "Feature",
      "geometry": {
        "type": "Point",
        "coordinates": [
          -1.236963,
          51.746686
        ]
      },
      "properties": {
        "name": "The Black Swan",
        "osm_type": "wikidata",
        "osm_id": 138410686,
        "address": "Oxford",
        "house_name": "",
        "house_number": "",
        "street": "",
        "suburb": "",
        "city": "Oxford",
        "postcode": "",
        "country": "",
        "operator": "",
        "brewery": "",
        "website": "",
        "phone": "",
        "opening_hours": "",
        "cuisine": "",
        "food": "",
        "drink": "",
        "outdoor_seating": "",
        "indoor_seating": "",
        "internet_access": "",
        "real_ale": "",
        "real_cider": "",
        "live_music": "",
        "dog": "",
        "wheelchair": "",
        "toilets": "",
        "smoking": "",
        "wikidata": "Q138410686",
        "wikipedia": "",
        "fetched_at_utc": "2026-10-07T09:42:22+00:00",
        "source_endpoint": "wikidata",
        "tags": {
          "name": "The Black Swan",
          "wikidata": "Q138410686",
          "amenity": "pub",
          "addr:city": "Oxford"
        }
      }
    },
    {
      "type": "Feature",
      "geometry": {
        "type": "Point",
        "coordinates": [
          -1.264431366,
          51.751682354
        ]
      },
      "properties": {
        "name": "The Brewery Gate",
        "osm_type": "wikidata",
        "osm_id": 135582311,
        "address": "Oxford",
        "house_name": "",
        "house_number": "",
        "street": "",
        "suburb": "",
        "city": "Oxford",
        "postcode": "",
        "country": "",
        "operator": "",
        "brewery": "",
        "website": "",
        "phone": "",
        "opening_hours": "",
        "cuisine": "",
        "food": "",
        "drink": "",
        "outdoor_seating": "",
        "indoor_seating": "",
        "internet_access": "",
        "real_ale": "",
        "real_cider": "",
        "live_music": "",
        "dog": "",
        "wheelchair": "",
        "toilets": "",
        "smoking": "",
        "wikidata": "Q135582311",
        "wikipedia": "",
        "fetched_at_utc": "2026-10-07T09:42:22+00:00",
        "source_endpoint": "wikidata",
        "tags": {
          "name": "The Brewery Gate",
          "wikidata": "Q135582311",
          "amenity": "pub",
          "addr:city": "Oxford"
        }
      }
    },
    {
      "type": "Feature",
      "geometry": {
        "type": "Point",
        "coordinates": [
          -1.244722222,
          51.75
        ]
      },
      "properties": {
        "name": "The Cape Of Good Hope",
        "osm_type": "wikidata",
        "osm_id": 126282775,
        "address": "Oxford",
        "house_name": "",
        "house_number": "",
        "street": "",
        "suburb": "",
        "city": "Oxford",
        "postcode": "",
        "country": "",
        "operator": "",
        "brewery": "",
        "website": "",
        "phone": "",
        "opening_hours": "",
        "cuisine": "",
        "food": "",
        "drink": "",
        "outdoor_seating": "",
        "indoor_seating": "",
        "internet_access": "",
        "real_ale": "",
        "real_cider": "",
        "live_music": "",
        "dog": "",
        "wheelchair": "",
        "toilets": "",
        "smoking": "",
        "wikidata": "Q126282775",
        "wikipedia": "",
        "fetched_at_utc": "2026-10-07T09:42:22+00:00",
        "source_endpoint": "wikidata",
        "tags": {
          "name": "The Cape Of Good Hope",
          "wikidata": "Q126282775",
          "amenity": "pub",
          "addr:city": "Oxford"
        }
      }
    },
    {
      "type": "Feature",
      "geometry": {
        "type": "Point",
        "coordinates": [
          -1.26196,
          51.750704
        ]
      },
      "properties": {
        "name": "The Castle",
        "osm_type": "wikidata",
        "osm_id": 135193347,
        "address": "Oxford",
        "house_name": "",
        "house_number": "",
        "street": "",
        "suburb": "",
        "city": "Oxford",
        "postcode": "",
        "country": "",
        "operator": "",
        "brewery": "",
        "website": "",
        "phone": "",
        "opening_hours": "",
        "cuisine": "",
        "food": "",
        "drink": "",
        "outdoor_seating": "",
        "indoor_seating": "",
        "internet_access": "",
        "real_ale": "",
        "real_cider": "",
        "live_music": "",
        "dog": "",
        "wheelchair": "",
        "toilets": "",
        "smoking": "",
        "wikidata": "Q135193347",
        "wikipedia": "",
        "fetched_at_utc": "2026-10-07T09:42:22+00:00",
        "source_endpoint": "wikidata",
        "tags": {
          "name": "The Castle",
          "wikidata": "Q135193347",
          "amenity": "pub",
          "addr:city": "Oxford"
        }
      }
    },
    {
      "type": "Feature",
      "geometry": {
        "type": "Point",
        "coordinates": [
          -1.256699,
          51.75195
        ]
      },
      "properties": {
        "name": "The Chequers Inn",
        "osm_type": "wikidata",
        "osm_id": 26481975,
        "address": "Oxford",
        "house_name": "",
        "house_number": "",
        "street": "",
        "suburb": "",
        "city": "Oxford",
        "postcode": "",
        "country": "",
        "operator": "",
        "brewery": "",
        "website": "",
        "phone": "",
        "opening_hours": "",
        "cuisine": "",
        "food": "",
        "drink": "",
        "outdoor_seating": "",
        "indoor_seating": "",
        "internet_access": "",
        "real_ale": "",
        "real_cider": "",
        "live_music": "",
        "dog": "",
        "wheelchair": "",
        "toilets": "",
        "smoking": "",
        "wikidata": "Q26481975",
        "wikipedia": "",
        "fetched_at_utc": "2026-10-07T09:42:22+00:00",
        "source_endpoint": "wikidata",
        "tags": {
          "name": "The Chequers Inn",
          "wikidata": "Q26481975",
          "amenity": "pub",
          "heritage": "2",
          "historic": "building",
          "listed_status": "grade ii",
          "addr:city": "Oxford"
        }
      }
    },
    {
      "type": "Feature",
      "geometry": {
        "type": "Point",
        "coordinates": [
          -1.2406271,
          51.7416405
        ]
      },
      "properties": {
        "name": "The Chester Arms",
        "osm_type": "wikidata",
        "osm_id": 135188713,
        "address": "Oxford",
        "house_name": "",
        "house_number": "",
        "street": "",
        "suburb": "",
        "city": "Oxford",
        "postcode": "",
        "country": "",
        "operator": "",
        "brewery": "",
        "website": "",
        "phone": "",
        "opening_hours": "",
        "cuisine": "",
        "food": "",
        "drink": "",
        "outdoor_seating": "",
        "indoor_seating": "",
        "internet_access": "",
        "real_ale": "",
        "real_cider": "",
        "live_music": "",
        "dog": "",
        "wheelchair": "",
        "toilets": "",
        "smoking": "",
        "wikidata": "Q135188713",
        "wikipedia": "",
        "fetched_at_utc": "2026-10-07T09:42:22+00:00",
        "source_endpoint": "wikidata",
        "tags": {
          "name": "The Chester Arms",
          "wikidata": "Q135188713",
          "amenity": "pub",
          "addr:city": "Oxford"
        }
      }
    },
    {
      "type": "Feature",
      "geometry": {
        "type": "Point",
        "coordinates": [
          -1.230042,
          51.744977
        ]
      },
      "properties": {
        "name": "The City Arms",
        "osm_type": "wikidata",
        "osm_id": 135193240,
        "address": "Oxford",
        "house_name": "",
        "house_number": "",
        "street": "",
        "suburb": "",
        "city": "Oxford",
        "postcode": "",
        "country": "",
        "operator": "",
        "brewery": "",
        "website": "",
        "phone": "",
        "opening_hours": "",
        "cuisine": "",
        "food": "",
        "drink": "",
        "outdoor_seating": "",
        "indoor_seating": "",
        "internet_access": "",
        "real_ale": "",
        "real_cider": "",
        "live_music": "",
        "dog": "",
        "wheelchair": "",
        "toilets": "",
        "smoking": "",
        "wikidata": "Q135193240",
        "wikipedia": "",
        "fetched_at_utc": "2026-10-07T09:42:22+00:00",
        "source_endpoint": "wikidata",
        "tags": {
          "name": "The City Arms",
          "wikidata": "Q135193240",
          "amenity": "pub",
          "addr:city": "Oxford"
        }
      }
    },
    {
      "type": "Feature",
      "geometry": {
        "type": "Point",
        "coordinates": [
          -1.2607137,
          51.7518306
        ]
      },
      "properties": {
        "name": "The Cow & Creek",
        "osm_type": "wikidata",
        "osm_id": 138448038,
        "address": "Oxford",
        "house_name": "",
        "house_number": "",
        "street": "",
        "suburb": "",
        "city": "Oxford",
        "postcode": "",
        "country": "",
        "operator": "",
        "brewery": "",
        "website": "",
        "phone": "",
        "opening_hours": "",
        "cuisine": "",
        "food": "",
        "drink": "",
        "outdoor_seating": "",
        "indoor_seating": "",
        "internet_access": "",
        "real_ale": "",
        "real_cider": "",
        "live_music": "",
        "dog": "",
        "wheelchair": "",
        "toilets": "",
        "smoking": "",
        "wikidata": "Q138448038",
        "wikipedia": "",
        "fetched_at_utc": "2026-10-07T09:42:22+00:00",
        "source_endpoint": "wikidata",
        "tags": {
          "name": "The Cow & Creek",
          "wikidata": "Q138448038",
          "amenity": "pub",
          "addr:city": "Oxford"
        }
      }
    },
    {
      "type": "Feature",
      "geometry": {
        "type": "Point",
        "coordinates": [
          -1.235565,
          51.74716
        ]
      },
      "properties": {
        "name": "The Cowley Retreat",
        "osm_type": "wikidata",
        "osm_id": 138448029,
        "address": "Oxford",
        "house_name": "",
        "house_number": "",
        "street": "",
        "suburb": "",
        "city": "Oxford",
        "postcode": "",
        "country": "",
        "operator": "",
        "brewery": "",
        "website": "",
        "phone": "",
        "opening_hours": "",
        "cuisine": "",
        "food": "",
        "drink": "",
        "outdoor_seating": "",
        "indoor_seating": "",
        "internet_access": "",
        "real_ale": "",
        "real_cider": "",
        "live_music": "",
        "dog": "",
        "wheelchair": "",
        "toilets": "",
        "smoking": "",
        "wikidata": "Q138448029",
        "wikipedia": "",
        "fetched_at_utc": "2026-10-07T09:42:22+00:00",
        "source_endpoint": "wikidata",
        "tags": {
          "name": "The Cowley Retreat",
          "wikidata": "Q138448029",
          "amenity": "pub",
          "addr:city": "Oxford"
        }
      }
    },
    {
      "type": "Feature",
      "geometry": {
        "type": "Point",
        "coordinates": [
          -1.2583282,
          51.7522047
        ]
      },
      "properties": {
        "name": "The Crown",
        "osm_type": "wikidata",
        "osm_id": 135188702,
        "address": "Oxford",
        "house_name": "",
        "house_number": "",
        "street": "",
        "suburb": "",
        "city": "Oxford",
        "postcode": "",
        "country": "",
        "operator": "",
        "brewery": "",
        "website": "",
        "phone": "",
        "opening_hours": "",
        "cuisine": "",
        "food": "",
        "drink": "",
        "outdoor_seating": "",
        "indoor_seating": "",
        "internet_access": "",
        "real_ale": "",
        "real_cider": "",
        "live_music": "",
        "dog": "",
        "wheelchair": "",
        "toilets": "",
        "smoking": "",
        "wikidata": "Q135188702",
        "wikipedia": "",
        "fetched_at_utc": "2026-10-07T09:42:22+00:00",
        "source_endpoint": "wikidata",
        "tags": {
          "name": "The Crown",
          "wikidata": "Q135188702",
          "amenity": "pub",
          "addr:city": "Oxford"
        }
      }
    },
    {
      "type": "Feature",
      "geometry": {
        "type": "Point",
        "coordinates": [
          -1.252275,
          51.737308
        ]
      },
      "properties": {
        "name": "The Duke of Monmouth",
        "osm_type": "wikidata",
        "osm_id": 138447995,
        "address": "Oxford",
        "house_name": "",
        "house_number": "",
        "street": "",
        "suburb": "",
        "city": "Oxford",
        "postcode": "",
        "country": "",
        "operator": "",
        "brewery": "",
        "website": "",
        "phone": "",
        "opening_hours": "",
        "cuisine": "",
        "food": "",
        "drink": "",
        "outdoor_seating": "",
        "indoor_seating": "",
        "internet_access": "",
        "real_ale": "",
        "real_cider": "",
        "live_music": "",
        "dog": "",
        "wheelchair": "",
        "toilets": "",
        "smoking": "",
        "wikidata": "Q138447995",
        "wikipedia": "",
        "fetched_at_utc": "2026-10-07T09:42:22+00:00",
        "source_endpoint": "wikidata",
        "tags": {
          "name": "The Duke of Monmouth",
          "wikidata": "Q138447995",
          "amenity": "pub",
          "addr:city": "Oxford"
        }
      }
    },
    {
      "type": "Feature",
      "geometry": {
        "type": "Point",
        "coordinates": [
          -1.2603,
          51.7572
        ]
      },
      "properties": {
        "name": "The Eagle and Child",
        "osm_type": "wikidata",
        "osm_id": 82190,
        "address": "Oxford",
        "house_name": "",
        "house_number": "",
        "street": "",
        "suburb": "",
        "city": "Oxford",
        "postcode": "",
        "country": "",
        "operator": "",
        "brewery": "",
        "website": "",
        "phone": "",
        "opening_hours": "",
        "cuisine": "",
        "food": "",
        "drink": "",
        "outdoor_seating": "",
        "indoor_seating": "",
        "internet_access": "",
        "real_ale": "",
        "real_cider": "",
        "live_music": "",
        "dog": "",
        "wheelchair": "",
        "toilets": "",
        "smoking": "",
        "wikidata": "Q82190",
        "wikipedia": "en:The Eagle and Child",
        "fetched_at_utc": "2026-10-07T09:42:22+00:00",
        "source_endpoint": "wikidata",
        "tags": {
          "name": "The Eagle and Child",
          "wikidata": "Q82190",
          "amenity": "pub",
          "heritage": "2",
          "historic": "building",
          "listed_status": "grade ii",
          "wikipedia": "en:The Eagle and Child",
          "addr:city": "Oxford"
        }
      }
    },
    {
      "type": "Feature",
      "geometry": {
        "type": "Point",
        "coordinates": [
          -1.240001,
          51.744429
        ]
      },
      "properties": {
        "name": "The Fir Tree",
        "osm_type": "wikidata",
        "osm_id": 135193283,
        "address": "Oxford",
        "house_name": "",
        "house_number": "",
        "street": "",
        "suburb": "",
        "city": "Oxford",
        "postcode": "",
        "country": "",
        "operator": "",
        "brewery": "",
        "website": "",
        "phone": "",
        "opening_hours": "",
        "cuisine": "",
        "food": "",
        "drink": "",
        "outdoor_seating": "",
        "indoor_seating": "",
        "internet_access": "",
        "real_ale": "",
        "real_cider": "",
        "live_music": "",
        "dog": "",
        "wheelchair": "",
        "toilets": "",
        "smoking": "",
        "wikidata": "Q135193283",
        "wikipedia": "",
        "fetched_at_utc": "2026-10-07T09:42:22+00:00",
        "source_endpoint": "wikidata",
        "tags": {
          "name": "The Fir Tree",
          "wikidata": "Q135193283",
          "amenity": "pub",
          "addr:city": "Oxford"
        }
      }
    },
    {
      "type": "Feature",
      "geometry": {
        "type": "Point",
        "coordinates": [
          -1.2825397,
          51.7452124
        ]
      },
      "properties": {
        "name": "The Fishes",
        "osm_type": "wikidata",
        "osm_id": 124520832,
        "address": "Oxford",
        "house_name": "",
        "house_number": "",
        "street": "",
        "suburb": "",
        "city": "Oxford",
        "postcode": "",
        "country": "",
        "operator": "",
        "brewery": "",
        "website": "",
        "phone": "",
        "opening_hours": "",
        "cuisine": "",
        "food": "",
        "drink": "",
        "outdoor_seating": "",
        "indoor_seating": "",
        "internet_access": "",
        "real_ale": "",
        "real_cider": "",
        "live_music": "",
        "dog": "",
        "wheelchair": "",
        "toilets": "",
        "smoking": "",
        "wikidata": "Q124520832",
        "wikipedia": "",
        "fetched_at_utc": "2026-10-07T09:42:22+00:00",
        "source_endpoint": "wikidata",
        "tags": {
          "name": "The Fishes",
          "wikidata": "Q124520832",
          "amenity": "pub",
          "addr:city": "Oxford"
        }
      }
    },
    {
      "type": "Feature",
      "geometry": {
        "type": "Point",
        "coordinates": [
          -1.262068644,
          51.753398095
        ]
      },
      "properties": {
        "name": "The Four Candles",
        "osm_type": "wikidata",
        "osm_id": 88917759,
        "address": "Oxford",
        "house_name": "",
        "house_number": "",
        "street": "",
        "suburb": "",
        "city": "Oxford",
        "postcode": "",
        "country": "",
        "operator": "",
        "brewery": "",
        "website": "",
        "phone": "",
        "opening_hours": "",
        "cuisine": "",
        "food": "",
        "drink": "",
        "outdoor_seating": "",
        "indoor_seating": "",
        "internet_access": "",
        "real_ale": "",
        "real_cider": "",
        "live_music": "",
        "dog": "",
        "wheelchair": "",
        "toilets": "",
        "smoking": "",
        "wikidata": "Q88917759",
        "wikipedia": "",
        "fetched_at_utc": "2026-10-07T09:42:22+00:00",
        "source_endpoint": "wikidata",
        "tags": {
          "name": "The Four Candles",
          "wikidata": "Q88917759",
          "amenity": "pub",
          "addr:city": "Oxford"
        }
      }
    },
    {
      "type": "Feature",
      "geometry": {
        "type": "Point",
        "coordinates": [
          -1.266547,
          51.762706
        ]
      },
      "properties": {
        "name": "The Gardeners Arms",
        "osm_type": "wikidata",
        "osm_id": 125319259,
        "address": "Oxford",
        "house_name": "",
        "house_number": "",
        "street": "",
        "suburb": "",
        "city": "Oxford",
        "postcode": "",
        "country": "",
        "operator": "",
        "brewery": "",
        "website": "",
        "phone": "",
        "opening_hours": "",
        "cuisine": "",
        "food": "",
        "drink": "",
        "outdoor_seating": "",
        "indoor_seating": "",
        "internet_access": "",
        "real_ale": "",
        "real_cider": "",
        "live_music": "",
        "dog": "",
        "wheelchair": "",
        "toilets": "",
        "smoking": "",
        "wikidata": "Q125319259",
        "wikipedia": "",
        "fetched_at_utc": "2026-10-07T09:42:22+00:00",
        "source_endpoint": "wikidata",
        "tags": {
          "name": "The Gardeners Arms",
          "wikidata": "Q125319259",
          "amenity": "pub",
          "addr:city": "Oxford"
        }
      }
    },
    {
      "type": "Feature",
      "geometry": {
        "type": "Point",
        "coordinates": [
          -1.2595821,
          51.7537486
        ]
      },
      "properties": {
        "name": "The Grapes",
        "osm_type": "wikidata",
        "osm_id": 135188689,
        "address": "Oxford",
        "house_name": "",
        "house_number": "",
        "street": "",
        "suburb": "",
        "city": "Oxford",
        "postcode": "",
        "country": "",
        "operator": "",
        "brewery": "",
        "website": "",
        "phone": "",
        "opening_hours": "",
        "cuisine": "",
        "food": "",
        "drink": "",
        "outdoor_seating": "",
        "indoor_seating": "",
        "internet_access": "",
        "real_ale": "",
        "real_cider": "",
        "live_music": "",
        "dog": "",
        "wheelchair": "",
        "toilets": "",
        "smoking": "",
        "wikidata": "Q135188689",
        "wikipedia": "",
        "fetched_at_utc": "2026-10-07T09:42:22+00:00",
        "source_endpoint": "wikidata",
        "tags": {
          "name": "The Grapes",
          "wikidata": "Q135188689",
          "amenity": "pub",
          "addr:city": "Oxford"
        }
      }
    },
    {
      "type": "Feature",
      "geometry": {
        "type": "Point",
        "coordinates": [
          -1.243496,
          51.750323
        ]
      },
      "properties": {
        "name": "The Half Moon",
        "osm_type": "wikidata",
        "osm_id": 138445196,
        "address": "Oxford",
        "house_name": "",
        "house_number": "",
        "street": "",
        "suburb": "",
        "city": "Oxford",
        "postcode": "",
        "country": "",
        "operator": "",
        "brewery": "",
        "website": "",
        "phone": "",
        "opening_hours": "",
        "cuisine": "",
        "food": "",
        "drink": "",
        "outdoor_seating": "",
        "indoor_seating": "",
        "internet_access": "",
        "real_ale": "",
        "real_cider": "",
        "live_music": "",
        "dog": "",
        "wheelchair": "",
        "toilets": "",
        "smoking": "",
        "wikidata": "Q138445196",
        "wikipedia": "",
        "fetched_at_utc": "2026-10-07T09:42:22+00:00",
        "source_endpoint": "wikidata",
        "tags": {
          "name": "The Half Moon",
          "wikidata": "Q138445196",
          "amenity": "pub",
          "addr:city": "Oxford"
        }
      }
    },
    {
      "type": "Feature",
      "geometry": {
        "type": "Point",
        "coordinates": [
          -1.268071,
          51.759395
        ]
      },
      "properties": {
        "name": "The Harcourt Arms",
        "osm_type": "wikidata",
        "osm_id": 138444913,
        "address": "Oxford",
        "house_name": "",
        "house_number": "",
        "street": "",
        "suburb": "",
        "city": "Oxford",
        "postcode": "",
        "country": "",
        "operator": "",
        "brewery": "",
        "website": "",
        "phone": "",
        "opening_hours": "",
        "cuisine": "",
        "food": "",
        "drink": "",
        "outdoor_seating": "",
        "indoor_seating": "",
        "internet_access": "",
        "real_ale": "",
        "real_cider": "",
        "live_music": "",
        "dog": "",
        "wheelchair": "",
        "toilets": "",
        "smoking": "",
        "wikidata": "Q138444913",
        "wikipedia": "",
        "fetched_at_utc": "2026-10-07T09:42:22+00:00",
        "source_endpoint": "wikidata",
        "tags": {
          "name": "The Harcourt Arms",
          "wikidata": "Q138444913",
          "amenity": "pub",
          "addr:city": "Oxford"
        }
      }
    },
    {
      "type": "Feature",
      "geometry": {
        "type": "Point",
        "coordinates": [
          -1.255908258,
          51.746668687
        ]
      },
      "properties": {
        "name": "The Head of the River",
        "osm_type": "wikidata",
        "osm_id": 135193225,
        "address": "Oxford",
        "house_name": "",
        "house_number": "",
        "street": "",
        "suburb": "",
        "city": "Oxford",
        "postcode": "",
        "country": "",
        "operator": "",
        "brewery": "",
        "website": "",
        "phone": "",
        "opening_hours": "",
        "cuisine": "",
        "food": "",
        "drink": "",
        "outdoor_seating": "",
        "indoor_seating": "",
        "internet_access": "",
        "real_ale": "",
        "real_cider": "",
        "live_music": "",
        "dog": "",
        "wheelchair": "",
        "toilets": "",
        "smoking": "",
        "wikidata": "Q135193225",
        "wikipedia": "",
        "fetched_at_utc": "2026-10-07T09:42:22+00:00",
        "source_endpoint": "wikidata",
        "tags": {
          "name": "The Head of the River",
          "wikidata": "Q135193225",
          "amenity": "pub",
          "addr:city": "Oxford"
        }
      }
    },
    {
      "type": "Feature",
      "geometry": {
        "type": "Point",
        "coordinates": [
          -1.273896,
          51.752163
        ]
      },
      "properties": {
        "name": "The Holly Bush",
        "osm_type": "wikidata",
        "osm_id": 138444746,
        "address": "Oxford",
        "house_name": "",
        "house_number": "",
        "street": "",
        "suburb": "",
        "city": "Oxford",
        "postcode": "",
        "country": "",
        "operator": "",
        "brewery": "",
        "website": "",
        "phone": "",
        "opening_hours": "",
        "cuisine": "",
        "food": "",
        "drink": "",
        "outdoor_seating": "",
        "indoor_seating": "",
        "internet_access": "",
        "real_ale": "",
        "real_cider": "",
        "live_music": "",
        "dog": "",
        "wheelchair": "",
        "toilets": "",
        "smoking": "",
        "wikidata": "Q138444746",
        "wikipedia": "",
        "fetched_at_utc": "2026-10-07T09:42:22+00:00",
        "source_endpoint": "wikidata",
        "tags": {
          "name": "The Holly Bush",
          "wikidata": "Q138444746",
          "amenity": "pub",
          "addr:city": "Oxford"
        }
      }
    },
    {
      "type": "Feature",
      "geometry": {
        "type": "Point",
        "coordinates": [
          -1.262665,
          51.750717
        ]
      },
      "properties": {
        "name": "The Jolly Farmers Inn",
        "osm_type": "wikidata",
        "osm_id": 26405543,
        "address": "Oxford",
        "house_name": "",
        "house_number": "",
        "street": "",
        "suburb": "",
        "city": "Oxford",
        "postcode": "",
        "country": "",
        "operator": "",
        "brewery": "",
        "website": "",
        "phone": "",
        "opening_hours": "",
        "cuisine": "",
        "food": "",
        "drink": "",
        "outdoor_seating": "",
        "indoor_seating": "",
        "internet_access": "",
        "real_ale": "",
        "real_cider": "",
        "live_music": "",
        "dog": "",
        "wheelchair": "",
        "toilets": "",
        "smoking": "",
        "wikidata": "Q26405543",
        "wikipedia": "",
        "fetched_at_utc": "2026-10-07T09:42:22+00:00",
        "source_endpoint": "wikidata",
        "tags": {
          "name": "The Jolly Farmers Inn",
          "wikidata": "Q26405543",
          "amenity": "pub",
          "heritage": "2",
          "historic": "building",
          "listed_status": "grade ii",
          "addr:city": "Oxford"
        }
      }
    },
    {
      "type": "Feature",
      "geometry": {
        "type": "Point",
        "coordinates": [
          -1.27113,
          51.75174
        ]
      },
      "properties": {
        "name": "The Kite",
        "osm_type": "wikidata",
        "osm_id": 111874164,
        "address": "Oxford",
        "house_name": "",
        "house_number": "",
        "street": "",
        "suburb": "",
        "city": "Oxford",
        "postcode": "",
        "country": "",
        "operator": "",
        "brewery": "",
        "website": "",
        "phone": "",
        "opening_hours": "",
        "cuisine": "",
        "food": "",
        "drink": "",
        "outdoor_seating": "",
        "indoor_seating": "",
        "internet_access": "",
        "real_ale": "",
        "real_cider": "",
        "live_music": "",
        "dog": "",
        "wheelchair": "",
        "toilets": "",
        "smoking": "",
        "wikidata": "Q111874164",
        "wikipedia": "",
        "fetched_at_utc": "2026-10-07T09:42:22+00:00",
        "source_endpoint": "wikidata",
        "tags": {
          "name": "The Kite",
          "wikidata": "Q111874164",
          "amenity": "pub",
          "addr:city": "Oxford"
        }
      }
    },
    {
      "type": "Feature",
      "geometry": {
        "type": "Point",
        "coordinates": [
          -1.26435,
          51.75289
        ]
      },
      "properties": {
        "name": "The Lighthouse",
        "osm_type": "wikidata",
        "osm_id": 28404378,
        "address": "Oxford",
        "house_name": "",
        "house_number": "",
        "street": "",
        "suburb": "",
        "city": "Oxford",
        "postcode": "",
        "country": "",
        "operator": "",
        "brewery": "",
        "website": "",
        "phone": "",
        "opening_hours": "",
        "cuisine": "",
        "food": "",
        "drink": "",
        "outdoor_seating": "",
        "indoor_seating": "",
        "internet_access": "",
        "real_ale": "",
        "real_cider": "",
        "live_music": "",
        "dog": "",
        "wheelchair": "",
        "toilets": "",
        "smoking": "",
        "wikidata": "Q28404378",
        "wikipedia": "en:The Lighthouse, Oxford",
        "fetched_at_utc": "2026-10-07T09:42:22+00:00",
        "source_endpoint": "wikidata",
        "tags": {
          "name": "The Lighthouse",
          "wikidata": "Q28404378",
          "amenity": "pub",
          "wikipedia": "en:The Lighthouse, Oxford",
          "addr:city": "Oxford"
        }
      }
    },
    {
      "type": "Feature",
      "geometry": {
        "type": "Point",
        "coordinates": [
          -1.242498,
          51.748414
        ]
      },
      "properties": {
        "name": "The Mad Hatter",
        "osm_type": "wikidata",
        "osm_id": 134549865,
        "address": "Oxford",
        "house_name": "",
        "house_number": "",
        "street": "",
        "suburb": "",
        "city": "Oxford",
        "postcode": "",
        "country": "",
        "operator": "",
        "brewery": "",
        "website": "",
        "phone": "",
        "opening_hours": "",
        "cuisine": "",
        "food": "",
        "drink": "",
        "outdoor_seating": "",
        "indoor_seating": "",
        "internet_access": "",
        "real_ale": "",
        "real_cider": "",
        "live_music": "",
        "dog": "",
        "wheelchair": "",
        "toilets": "",
        "smoking": "",
        "wikidata": "Q134549865",
        "wikipedia": "",
        "fetched_at_utc": "2026-10-07T09:42:22+00:00",
        "source_endpoint": "wikidata",
        "tags": {
          "name": "The Mad Hatter",
          "wikidata": "Q134549865",
          "amenity": "pub",
          "addr:city": "Oxford"
        }
      }
    },
    {
      "type": "Feature",
      "geometry": {
        "type": "Point",
        "coordinates": [
          -1.260441212,
          51.75948233
        ]
      },
      "properties": {
        "name": "The Old Parsonage",
        "osm_type": "wikidata",
        "osm_id": 26299464,
        "address": "Oxford",
        "house_name": "",
        "house_number": "",
        "street": "",
        "suburb": "",
        "city": "Oxford",
        "postcode": "",
        "country": "",
        "operator": "",
        "brewery": "",
        "website": "",
        "phone": "",
        "opening_hours": "",
        "cuisine": "",
        "food": "",
        "drink": "",
        "outdoor_seating": "",
        "indoor_seating": "",
        "internet_access": "",
        "real_ale": "",
        "real_cider": "",
        "live_music": "",
        "dog": "",
        "wheelchair": "",
        "toilets": "",
        "smoking": "",
        "wikidata": "Q26299464",
        "wikipedia": "",
        "fetched_at_utc": "2026-10-07T09:42:22+00:00",
        "source_endpoint": "wikidata",
        "tags": {
          "name": "The Old Parsonage",
          "wikidata": "Q26299464",
          "amenity": "pub",
          "heritage": "2",
          "historic": "building",
          "listed_status": "grade ii",
          "addr:city": "Oxford"
        }
      }
    },
    {
      "type": "Feature",
      "geometry": {
        "type": "Point",
        "coordinates": [
          -1.256216,
          51.743852
        ]
      },
      "properties": {
        "name": "The Old White House",
        "osm_type": "wikidata",
        "osm_id": 26650672,
        "address": "Oxford",
        "house_name": "",
        "house_number": "",
        "street": "",
        "suburb": "",
        "city": "Oxford",
        "postcode": "",
        "country": "",
        "operator": "",
        "brewery": "",
        "website": "",
        "phone": "",
        "opening_hours": "",
        "cuisine": "",
        "food": "",
        "drink": "",
        "outdoor_seating": "",
        "indoor_seating": "",
        "internet_access": "",
        "real_ale": "",
        "real_cider": "",
        "live_music": "",
        "dog": "",
        "wheelchair": "",
        "toilets": "",
        "smoking": "",
        "wikidata": "Q26650672",
        "wikipedia": "",
        "fetched_at_utc": "2026-10-07T09:42:22+00:00",
        "source_endpoint": "wikidata",
        "tags": {
          "name": "The Old White House",
          "wikidata": "Q26650672",
          "amenity": "pub",
          "heritage": "2",
          "historic": "building",
          "listed_status": "grade ii",
          "addr:city": "Oxford"
        }
      }
    },
    {
      "type": "Feature",
      "geometry": {
        "type": "Point",
        "coordinates": [
          -1.277,
          51.752209
        ]
      },
      "properties": {
        "name": "The Osney Arms Guest House",
        "osm_type": "wikidata",
        "osm_id": 138442934,
        "address": "Oxford",
        "house_name": "",
        "house_number": "",
        "street": "",
        "suburb": "",
        "city": "Oxford",
        "postcode": "",
        "country": "",
        "operator": "",
        "brewery": "",
        "website": "",
        "phone": "",
        "opening_hours": "",
        "cuisine": "",
        "food": "",
        "drink": "",
        "outdoor_seating": "",
        "indoor_seating": "",
        "internet_access": "",
        "real_ale": "",
        "real_cider": "",
        "live_music": "",
        "dog": "",
        "wheelchair": "",
        "toilets": "",
        "smoking": "",
        "wikidata": "Q138442934",
        "wikipedia": "",
        "fetched_at_utc": "2026-10-07T09:42:22+00:00",
        "source_endpoint": "wikidata",
        "tags": {
          "name": "The Osney Arms Guest House",
          "wikidata": "Q138442934",
          "amenity": "pub",
          "addr:city": "Oxford"
        }
      }
    },
    {
      "type": "Feature",
      "geometry": {
        "type": "Point",
        "coordinates": [
          -1.240692,
          51.74704
        ]
      },
      "properties": {
        "name": "The Oxford Blue",
        "osm_type": "wikidata",
        "osm_id": 138442812,
        "address": "Oxford",
        "house_name": "",
        "house_number": "",
        "street": "",
        "suburb": "",
        "city": "Oxford",
        "postcode": "",
        "country": "",
        "operator": "",
        "brewery": "",
        "website": "",
        "phone": "",
        "opening_hours": "",
        "cuisine": "",
        "food": "",
        "drink": "",
        "outdoor_seating": "",
        "indoor_seating": "",
        "internet_access": "",
        "real_ale": "",
        "real_cider": "",
        "live_music": "",
        "dog": "",
        "wheelchair": "",
        "toilets": "",
        "smoking": "",
        "wikidata": "Q138442812",
        "wikipedia": "",
        "fetched_at_utc": "2026-10-07T09:42:22+00:00",
        "source_endpoint": "wikidata",
        "tags": {
          "name": "The Oxford Blue",
          "wikidata": "Q138442812",
          "amenity": "pub",
          "addr:city": "Oxford"
        }
      }
    },
    {
      "type": "Feature",
      "geometry": {
        "type": "Point",
        "coordinates": [
          -1.26521,
          51.753372
        ]
      },
      "properties": {
        "name": "The Oxford Retreat",
        "osm_type": "wikidata",
        "osm_id": 135193189,
        "address": "Oxford",
        "house_name": "",
        "house_number": "",
        "street": "",
        "suburb": "",
        "city": "Oxford",
        "postcode": "",
        "country": "",
        "operator": "",
        "brewery": "",
        "website": "",
        "phone": "",
        "opening_hours": "",
        "cuisine": "",
        "food": "",
        "drink": "",
        "outdoor_seating": "",
        "indoor_seating": "",
        "internet_access": "",
        "real_ale": "",
        "real_cider": "",
        "live_music": "",
        "dog": "",
        "wheelchair": "",
        "toilets": "",
        "smoking": "",
        "wikidata": "Q135193189",
        "wikipedia": "",
        "fetched_at_utc": "2026-10-07T09:42:22+00:00",
        "source_endpoint": "wikidata",
        "tags": {
          "name": "The Oxford Retreat",
          "wikidata": "Q135193189",
          "amenity": "pub",
          "addr:city": "Oxford"
        }
      }
    },
    {
      "type": "Feature",
      "geometry": {
        "type": "Point",
        "coordinates": [
          -1.28723,
          51.765713
        ]
      },
      "properties": {
        "name": "The Perch",
        "osm_type": "wikidata",
        "osm_id": 7756670,
        "address": "Oxford",
        "house_name": "",
        "house_number": "",
        "street": "",
        "suburb": "",
        "city": "Oxford",
        "postcode": "",
        "country": "",
        "operator": "",
        "brewery": "",
        "website": "",
        "phone": "",
        "opening_hours": "",
        "cuisine": "",
        "food": "",
        "drink": "",
        "outdoor_seating": "",
        "indoor_seating": "",
        "internet_access": "",
        "real_ale": "",
        "real_cider": "",
        "live_music": "",
        "dog": "",
        "wheelchair": "",
        "toilets": "",
        "smoking": "",
        "wikidata": "Q7756670",
        "wikipedia": "en:The Perch, Binsey",
        "fetched_at_utc": "2026-10-07T09:42:22+00:00",
        "source_endpoint": "wikidata",
        "tags": {
          "name": "The Perch",
          "wikidata": "Q7756670",
          "amenity": "pub",
          "heritage": "2",
          "historic": "building",
          "listed_status": "grade ii",
          "wikipedia": "en:The Perch, Binsey",
          "addr:city": "Oxford"
        }
      }
    },
    {
      "type": "Feature",
      "geometry": {
        "type": "Point",
        "coordinates": [
          -1.239897692,
          51.7504556
        ]
      },
      "properties": {
        "name": "The Port Mahon Inn",
        "osm_type": "wikidata",
        "osm_id": 26299270,
        "address": "Oxford",
        "house_name": "",
        "house_number": "",
        "street": "",
        "suburb": "",
        "city": "Oxford",
        "postcode": "",
        "country": "",
        "operator": "",
        "brewery": "",
        "website": "",
        "phone": "",
        "opening_hours": "",
        "cuisine": "",
        "food": "",
        "drink": "",
        "outdoor_seating": "",
        "indoor_seating": "",
        "internet_access": "",
        "real_ale": "",
        "real_cider": "",
        "live_music": "",
        "dog": "",
        "wheelchair": "",
        "toilets": "",
        "smoking": "",
        "wikidata": "Q26299270",
        "wikipedia": "",
        "fetched_at_utc": "2026-10-07T09:42:22+00:00",
        "source_endpoint": "wikidata",
        "tags": {
          "name": "The Port Mahon Inn",
          "wikidata": "Q26299270",
          "amenity": "pub",
          "heritage": "2",
          "historic": "building",
          "listed_status": "grade ii",
          "addr:city": "Oxford"
        }
      }
    },
    {
      "type": "Feature",
      "geometry": {
        "type": "Point",
        "coordinates": [
          -1.272735,
          51.750373
        ]
      },
      "properties": {
        "name": "The Punter",
        "osm_type": "wikidata",
        "osm_id": 138425026,
        "address": "Oxford",
        "house_name": "",
        "house_number": "",
        "street": "",
        "suburb": "",
        "city": "Oxford",
        "postcode": "",
        "country": "",
        "operator": "",
        "brewery": "",
        "website": "",
        "phone": "",
        "opening_hours": "",
        "cuisine": "",
        "food": "",
        "drink": "",
        "outdoor_seating": "",
        "indoor_seating": "",
        "internet_access": "",
        "real_ale": "",
        "real_cider": "",
        "live_music": "",
        "dog": "",
        "wheelchair": "",
        "toilets": "",
        "smoking": "",
        "wikidata": "Q138425026",
        "wikipedia": "",
        "fetched_at_utc": "2026-10-07T09:42:22+00:00",
        "source_endpoint": "wikidata",
        "tags": {
          "name": "The Punter",
          "wikidata": "Q138425026",
          "amenity": "pub",
          "addr:city": "Oxford"
        }
      }
    },
    {
      "type": "Feature",
      "geometry": {
        "type": "Point",
        "coordinates": [
          -1.260847,
          51.754212
        ]
      },
      "properties": {
        "name": "The Red Lion",
        "osm_type": "wikidata",
        "osm_id": 133173782,
        "address": "Oxford",
        "house_name": "",
        "house_number": "",
        "street": "",
        "suburb": "",
        "city": "Oxford",
        "postcode": "",
        "country": "",
        "operator": "",
        "brewery": "",
        "website": "",
        "phone": "",
        "opening_hours": "",
        "cuisine": "",
        "food": "",
        "drink": "",
        "outdoor_seating": "",
        "indoor_seating": "",
        "internet_access": "",
        "real_ale": "",
        "real_cider": "",
        "live_music": "",
        "dog": "",
        "wheelchair": "",
        "toilets": "",
        "smoking": "",
        "wikidata": "Q133173782",
        "wikipedia": "",
        "fetched_at_utc": "2026-10-07T09:42:22+00:00",
        "source_endpoint": "wikidata",
        "tags": {
          "name": "The Red Lion",
          "wikidata": "Q133173782",
          "amenity": "pub",
          "addr:city": "Oxford"
        }
      }
    },
    {
      "type": "Feature",
      "geometry": {
        "type": "Point",
        "coordinates": [
          -1.268293,
          51.75988
        ]
      },
      "properties": {
        "name": "The Rickety Press",
        "osm_type": "wikidata",
        "osm_id": 138424884,
        "address": "Oxford",
        "house_name": "",
        "house_number": "",
        "street": "",
        "suburb": "",
        "city": "Oxford",
        "postcode": "",
        "country": "",
        "operator": "",
        "brewery": "",
        "website": "",
        "phone": "",
        "opening_hours": "",
        "cuisine": "",
        "food": "",
        "drink": "",
        "outdoor_seating": "",
        "indoor_seating": "",
        "internet_access": "",
        "real_ale": "",
        "real_cider": "",
        "live_music": "",
        "dog": "",
        "wheelchair": "",
        "toilets": "",
        "smoking": "",
        "wikidata": "Q138424884",
        "wikipedia": "",
        "fetched_at_utc": "2026-10-07T09:42:22+00:00",
        "source_endpoint": "wikidata",
        "tags": {
          "name": "The Rickety Press",
          "wikidata": "Q138424884",
          "amenity": "pub",
          "addr:city": "Oxford"
        }
      }
    },
    {
      "type": "Feature",
      "geometry": {
        "type": "Point",
        "coordinates": [
          -1.261657,
          51.764703
        ]
      },
      "properties": {
        "name": "The Rose & Crown",
        "osm_type": "wikidata",
        "osm_id": 121083555,
        "address": "Oxford",
        "house_name": "",
        "house_number": "",
        "street": "",
        "suburb": "",
        "city": "Oxford",
        "postcode": "",
        "country": "",
        "operator": "",
        "brewery": "",
        "website": "",
        "phone": "",
        "opening_hours": "",
        "cuisine": "",
        "food": "",
        "drink": "",
        "outdoor_seating": "",
        "indoor_seating": "",
        "internet_access": "",
        "real_ale": "",
        "real_cider": "",
        "live_music": "",
        "dog": "",
        "wheelchair": "",
        "toilets": "",
        "smoking": "",
        "wikidata": "Q121083555",
        "wikipedia": "en:The Rose & Crown, North Parade",
        "fetched_at_utc": "2026-10-07T09:42:22+00:00",
        "source_endpoint": "wikidata",
        "tags": {
          "name": "The Rose & Crown",
          "wikidata": "Q121083555",
          "amenity": "pub",
          "wikipedia": "en:The Rose & Crown, North Parade",
          "addr:city": "Oxford"
        }
      }
    },
    {
      "type": "Feature",
      "geometry": {
        "type": "Point",
        "coordinates": [
          -1.259392,
          51.750741
        ]
      },
      "properties": {
        "name": "The Royal Blenheim",
        "osm_type": "wikidata",
        "osm_id": 135188640,
        "address": "Oxford",
        "house_name": "",
        "house_number": "",
        "street": "",
        "suburb": "",
        "city": "Oxford",
        "postcode": "",
        "country": "",
        "operator": "",
        "brewery": "",
        "website": "",
        "phone": "",
        "opening_hours": "",
        "cuisine": "",
        "food": "",
        "drink": "",
        "outdoor_seating": "",
        "indoor_seating": "",
        "internet_access": "",
        "real_ale": "",
        "real_cider": "",
        "live_music": "",
        "dog": "",
        "wheelchair": "",
        "toilets": "",
        "smoking": "",
        "wikidata": "Q135188640",
        "wikipedia": "",
        "fetched_at_utc": "2026-10-07T09:42:22+00:00",
        "source_endpoint": "wikidata",
        "tags": {
          "name": "The Royal Blenheim",
          "wikidata": "Q135188640",
          "amenity": "pub",
          "addr:city": "Oxford"
        }
      }
    },
    {
      "type": "Feature",
      "geometry": {
        "type": "Point",
        "coordinates": [
          -1.234269,
          51.742962
        ]
      },
      "properties": {
        "name": "The Rusty Bicycle",
        "osm_type": "wikidata",
        "osm_id": 135193167,
        "address": "Oxford",
        "house_name": "",
        "house_number": "",
        "street": "",
        "suburb": "",
        "city": "Oxford",
        "postcode": "",
        "country": "",
        "operator": "",
        "brewery": "",
        "website": "",
        "phone": "",
        "opening_hours": "",
        "cuisine": "",
        "food": "",
        "drink": "",
        "outdoor_seating": "",
        "indoor_seating": "",
        "internet_access": "",
        "real_ale": "",
        "real_cider": "",
        "live_music": "",
        "dog": "",
        "wheelchair": "",
        "toilets": "",
        "smoking": "",
        "wikidata": "Q135193167",
        "wikipedia": "",
        "fetched_at_utc": "2026-10-07T09:42:22+00:00",
        "source_endpoint": "wikidata",
        "tags": {
          "name": "The Rusty Bicycle",
          "wikidata": "Q135193167",
          "amenity": "pub",
          "addr:city": "Oxford"
        }
      }
    },
    {
      "type": "Feature",
      "geometry": {
        "type": "Point",
        "coordinates": [
          -1.22596,
          51.739295
        ]
      },
      "properties": {
        "name": "The Shelly Arms",
        "osm_type": "wikidata",
        "osm_id": 138424871,
        "address": "Oxford",
        "house_name": "",
        "house_number": "",
        "street": "",
        "suburb": "",
        "city": "Oxford",
        "postcode": "",
        "country": "",
        "operator": "",
        "brewery": "",
        "website": "",
        "phone": "",
        "opening_hours": "",
        "cuisine": "",
        "food": "",
        "drink": "",
        "outdoor_seating": "",
        "indoor_seating": "",
        "internet_access": "",
        "real_ale": "",
        "real_cider": "",
        "live_music": "",
        "dog": "",
        "wheelchair": "",
        "toilets": "",
        "smoking": "",
        "wikidata": "Q138424871",
        "wikipedia": "",
        "fetched_at_utc": "2026-10-07T09:42:22+00:00",
        "source_endpoint": "wikidata",
        "tags": {
          "name": "The Shelly Arms",
          "wikidata": "Q138424871",
          "amenity": "pub",
          "addr:city": "Oxford"
        }
      }
    },
    {
      "type": "Feature",
      "geometry": {
        "type": "Point",
        "coordinates": [
          -1.238194,
          51.749387
        ]
      },
      "properties": {
        "name": "The Star",
        "osm_type": "wikidata",
        "osm_id": 138387361,
        "address": "Oxford",
        "house_name": "",
        "house_number": "",
        "street": "",
        "suburb": "",
        "city": "Oxford",
        "postcode": "",
        "country": "",
        "operator": "",
        "brewery": "",
        "website": "",
        "phone": "",
        "opening_hours": "",
        "cuisine": "",
        "food": "",
        "drink": "",
        "outdoor_seating": "",
        "indoor_seating": "",
        "internet_access": "",
        "real_ale": "",
        "real_cider": "",
        "live_music": "",
        "dog": "",
        "wheelchair": "",
        "toilets": "",
        "smoking": "",
        "wikidata": "Q138387361",
        "wikipedia": "",
        "fetched_at_utc": "2026-10-07T09:42:22+00:00",
        "source_endpoint": "wikidata",
        "tags": {
          "name": "The Star",
          "wikidata": "Q138387361",
          "amenity": "pub",
          "addr:city": "Oxford"
        }
      }
    },
    {
      "type": "Feature",
      "geometry": {
        "type": "Point",
        "coordinates": [
          -1.2615824,
          51.7511716
        ]
      },
      "properties": {
        "name": "The Swan & Castle",
        "osm_type": "wikidata",
        "osm_id": 88917761,
        "address": "Oxford",
        "house_name": "",
        "house_number": "",
        "street": "",
        "suburb": "",
        "city": "Oxford",
        "postcode": "",
        "country": "",
        "operator": "",
        "brewery": "",
        "website": "",
        "phone": "",
        "opening_hours": "",
        "cuisine": "",
        "food": "",
        "drink": "",
        "outdoor_seating": "",
        "indoor_seating": "",
        "internet_access": "",
        "real_ale": "",
        "real_cider": "",
        "live_music": "",
        "dog": "",
        "wheelchair": "",
        "toilets": "",
        "smoking": "",
        "wikidata": "Q88917761",
        "wikipedia": "",
        "fetched_at_utc": "2026-10-07T09:42:22+00:00",
        "source_endpoint": "wikidata",
        "tags": {
          "name": "The Swan & Castle",
          "wikidata": "Q88917761",
          "amenity": "pub",
          "addr:city": "Oxford"
        }
      }
    },
    {
      "type": "Feature",
      "geometry": {
        "type": "Point",
        "coordinates": [
          -1.267789678,
          51.761684754
        ]
      },
      "properties": {
        "name": "The Victoria",
        "osm_type": "wikidata",
        "osm_id": 135188618,
        "address": "Oxford",
        "house_name": "",
        "house_number": "",
        "street": "",
        "suburb": "",
        "city": "Oxford",
        "postcode": "",
        "country": "",
        "operator": "",
        "brewery": "",
        "website": "",
        "phone": "",
        "opening_hours": "",
        "cuisine": "",
        "food": "",
        "drink": "",
        "outdoor_seating": "",
        "indoor_seating": "",
        "internet_access": "",
        "real_ale": "",
        "real_cider": "",
        "live_music": "",
        "dog": "",
        "wheelchair": "",
        "toilets": "",
        "smoking": "",
        "wikidata": "Q135188618",
        "wikipedia": "",
        "fetched_at_utc": "2026-10-07T09:42:22+00:00",
        "source_endpoint": "wikidata",
        "tags": {
          "name": "The Victoria",
          "wikidata": "Q135188618",
          "amenity": "pub",
          "addr:city": "Oxford"
        }
      }
    },
    {
      "type": "Feature",
      "geometry": {
        "type": "Point",
        "coordinates": [
          -1.256298,
          51.75174
        ]
      },
      "properties": {
        "name": "The Wheatsheaf",
        "osm_type": "wikidata",
        "osm_id": 138424572,
        "address": "Oxford",
        "house_name": "",
        "house_number": "",
        "street": "",
        "suburb": "",
        "city": "Oxford",
        "postcode": "",
        "country": "",
        "operator": "",
        "brewery": "",
        "website": "",
        "phone": "",
        "opening_hours": "",
        "cuisine": "",
        "food": "",
        "drink": "",
        "outdoor_seating": "",
        "indoor_seating": "",
        "internet_access": "",
        "real_ale": "",
        "real_cider": "",
        "live_music": "",
        "dog": "",
        "wheelchair": "",
        "toilets": "",
        "smoking": "",
        "wikidata": "Q138424572",
        "wikipedia": "",
        "fetched_at_utc": "2026-10-07T09:42:22+00:00",
        "source_endpoint": "wikidata",
        "tags": {
          "name": "The Wheatsheaf",
          "wikidata": "Q138424572",
          "amenity": "pub",
          "addr:city": "Oxford"
        }
      }
    },
    {
      "type": "Feature",
      "geometry": {
        "type": "Point",
        "coordinates": [
          -1.255691,
          51.754621
        ]
      },
      "properties": {
        "name": "The White Horse",
        "osm_type": "wikidata",
        "osm_id": 26480787,
        "address": "Oxford",
        "house_name": "",
        "house_number": "",
        "street": "",
        "suburb": "",
        "city": "Oxford",
        "postcode": "",
        "country": "",
        "operator": "",
        "brewery": "",
        "website": "",
        "phone": "",
        "opening_hours": "",
        "cuisine": "",
        "food": "",
        "drink": "",
        "outdoor_seating": "",
        "indoor_seating": "",
        "internet_access": "",
        "real_ale": "",
        "real_cider": "",
        "live_music": "",
        "dog": "",
        "wheelchair": "",
        "toilets": "",
        "smoking": "",
        "wikidata": "Q26480787",
        "wikipedia": "",
        "fetched_at_utc": "2026-10-07T09:42:22+00:00",
        "source_endpoint": "wikidata",
        "tags": {
          "name": "The White Horse",
          "wikidata": "Q26480787",
          "amenity": "pub",
          "heritage": "2",
          "historic": "building",
          "listed_status": "grade ii",
          "addr:city": "Oxford"
        }
      }
    },
    {
      "type": "Feature",
      "geometry": {
        "type": "Point",
        "coordinates": [
          -1.2591696,
          51.7534024
        ]
      },
      "properties": {
        "name": "Three Goats Heads",
        "osm_type": "wikidata",
        "osm_id": 135193141,
        "address": "Oxford",
        "house_name": "",
        "house_number": "",
        "street": "",
        "suburb": "",
        "city": "Oxford",
        "postcode": "",
        "country": "",
        "operator": "",
        "brewery": "",
        "website": "",
        "phone": "",
        "opening_hours": "",
        "cuisine": "",
        "food": "",
        "drink": "",
        "outdoor_seating": "",
        "indoor_seating": "",
        "internet_access": "",
        "real_ale": "",
        "real_cider": "",
        "live_music": "",
        "dog": "",
        "wheelchair": "",
        "toilets": "",
        "smoking": "",
        "wikidata": "Q135193141",
        "wikipedia": "",
        "fetched_at_utc": "2026-10-07T09:42:22+00:00",
        "source_endpoint": "wikidata",
        "tags": {
          "name": "Three Goats Heads",
          "wikidata": "Q135193141",
          "amenity": "pub",
          "addr:city": "Oxford"
        }
      }
    },
    {
      "type": "Feature",
      "geometry": {
        "type": "Point",
        "coordinates": [
          -1.253,
          51.7547
        ]
      },
      "properties": {
        "name": "Turf Tavern",
        "osm_type": "wikidata",
        "osm_id": 7854865,
        "address": "Oxford",
        "house_name": "",
        "house_number": "",
        "street": "",
        "suburb": "",
        "city": "Oxford",
        "postcode": "",
        "country": "",
        "operator": "",
        "brewery": "",
        "website": "",
        "phone": "",
        "opening_hours": "",
        "cuisine": "",
        "food": "",
        "drink": "",
        "outdoor_seating": "",
        "indoor_seating": "",
        "internet_access": "",
        "real_ale": "",
        "real_cider": "",
        "live_music": "",
        "dog": "",
        "wheelchair": "",
        "toilets": "",
        "smoking": "",
        "wikidata": "Q7854865",
        "wikipedia": "en:Turf Tavern",
        "fetched_at_utc": "2026-10-07T09:42:22+00:00",
        "source_endpoint": "wikidata",
        "tags": {
          "name": "Turf Tavern",
          "wikidata": "Q7854865",
          "amenity": "pub",
          "heritage": "2",
          "historic": "building",
          "listed_status": "grade ii",
          "wikipedia": "en:Turf Tavern",
          "addr:city": "Oxford"
        }
      }
    },
    {
      "type": "Feature",
      "geometry": {
        "type": "Point",
        "coordinates": [
          -1.25183,
          51.74099
        ]
      },
      "properties": {
        "name": "Voco Oxford Spires",
        "osm_type": "wikidata",
        "osm_id": 111874169,
        "address": "Oxford",
        "house_name": "",
        "house_number": "",
        "street": "",
        "suburb": "",
        "city": "Oxford",
        "postcode": "",
        "country": "",
        "operator": "",
        "brewery": "",
        "website": "",
        "phone": "",
        "opening_hours": "",
        "cuisine": "",
        "food": "",
        "drink": "",
        "outdoor_seating": "",
        "indoor_seating": "",
        "internet_access": "",
        "real_ale": "",
        "real_cider": "",
        "live_music": "",
        "dog": "",
        "wheelchair": "",
        "toilets": "",
        "smoking": "",
        "wikidata": "Q111874169",
        "wikipedia": "",
        "fetched_at_utc": "2026-10-07T09:42:22+00:00",
        "source_endpoint": "wikidata",
        "tags": {
          "name": "Voco Oxford Spires",
          "wikidata": "Q111874169",
          "amenity": "pub",
          "addr:city": "Oxford"
        }
      }
    },
    {
      "type": "Feature",
      "geometry": {
        "type": "Point",
        "coordinates": [
          -1.2607,
          51.754483
        ]
      },
      "properties": {
        "name": "White Rabbit",
        "osm_type": "wikidata",
        "osm_id": 135193104,
        "address": "Oxford",
        "house_name": "",
        "house_number": "",
        "street": "",
        "suburb": "",
        "city": "Oxford",
        "postcode": "",
        "country": "",
        "operator": "",
        "brewery": "",
        "website": "",
        "phone": "",
        "opening_hours": "",
        "cuisine": "",
        "food": "",
        "drink": "",
        "outdoor_seating": "",
        "indoor_seating": "",
        "internet_access": "",
        "real_ale": "",
        "real_cider": "",
        "live_music": "",
        "dog": "",
        "wheelchair": "",
        "toilets": "",
        "smoking": "",
        "wikidata": "Q135193104",
        "wikipedia": "",
        "fetched_at_utc": "2026-10-07T09:42:22+00:00",
        "source_endpoint": "wikidata",
        "tags": {
          "name": "White Rabbit",
          "wikidata": "Q135193104",
          "amenity": "pub",
          "addr:city": "Oxford"
        }
      }
    },
    {
      "type": "Feature",
      "geometry": {
        "type": "Point",
        "coordinates": [
          -1.2597135,
          51.7537177
        ]
      },
      "properties": {
        "name": "Wig & Pen",
        "osm_type": "wikidata",
        "osm_id": 138424547,
        "address": "Oxford",
        "house_name": "",
        "house_number": "",
        "street": "",
        "suburb": "",
        "city": "Oxford",
        "postcode": "",
        "country": "",
        "operator": "",
        "brewery": "",
        "website": "",
        "phone": "",
        "opening_hours": "",
        "cuisine": "",
        "food": "",
        "drink": "",
        "outdoor_seating": "",
        "indoor_seating": "",
        "internet_access": "",
        "real_ale": "",
        "real_cider": "",
        "live_music": "",
        "dog": "",
        "wheelchair": "",
        "toilets": "",
        "smoking": "",
        "wikidata": "Q138424547",
        "wikipedia": "",
        "fetched_at_utc": "2026-10-07T09:42:22+00:00",
        "source_endpoint": "wikidata",
        "tags": {
          "name": "Wig & Pen",
          "wikidata": "Q138424547",
          "amenity": "pub",
          "addr:city": "Oxford"
        }
      }
    }
  ]
}